GSAT0222 (PRN E33)      
1 43565U 18060B   22263.71474560 -.00000089  00000+0  00000+0 0  9993
2 43565  57.2090  18.6121 0002332 254.1875 105.7914  1.70476262 25930
GSAT0219 (PRN E36)      
1 43566U 18060C   22263.93528749 -.00000088  00000+0  00000+0 0  9996
2 43566  57.2095  18.6081 0002021 250.0961 109.8866  1.70476263 25917
GSAT0220 (PRN E13)      
1 43567U 18060D   22264.15546703 -.00000088  00000+0  00000+0 0  9992
2 43567  57.2096  18.6027 0002479 247.5377 112.4406  1.70476216 25905
BEIDOU-3 M9 (C23)       
1 43581U 18062A   22264.46679156  .00000009  00000+0  00000+0 0  9995
2 43581  54.2538 228.7975 0005967 276.4131 280.9422  1.86231917 28219
BEIDOU-3 M10 (C24)      
1 43582U 18062B   22264.84434980  .00000007  00000+0  00000+0 0  9990
2 43582  54.2525 228.7739 0005247 340.4530 201.9334  1.86232359 28227
BEIDOU-3 M11 (C25)      
1 43602U 18067A   22265.08543181  .00000005  00000+0  00000+0 0  9997
2 43602  54.3363 227.3896 0006940   1.7487  23.4611  1.86231525 27722
BEIDOU-3 M12 (C26)      
1 43603U 18067B   22264.88624252  .00000005  00000+0  00000+0 0  9994
2 43603  54.3331 227.3628 0004266 344.4579 177.5622  1.86231492 27736
BEIDOU-3 M13 (C32)      
1 43622U 18072A   22264.51608983  .00000036  00000+0  00000+0 0  9998
2 43622  55.5340 108.1272 0004697 292.4144  10.4746  1.86231784 27230
BEIDOU-3 M14 (C33)      
1 43623U 18072B   22264.46855094  .00000035  00000+0  00000+0 0  9999
2 43623  55.5367 108.1209 0003221 336.4013  24.8547  1.86231781 27242
BEIDOU-3 M15 (C34)      
1 43647U 18078A   22264.61902824 -.00000096  00000+0  10000-3 0  9995
2 43647  55.0871 347.2971 0005068   2.5243 355.2745  1.86233124 26740
BEIDOU-3 M16 (C35)      
1 43648U 18078B   22264.80612172 -.00000095  00000+0  00000+0 0  9995
2 43648  55.0836 347.2976 0003094  23.9126   6.9235  1.86232258 26775
BEIDOU-3 G1 (C59)       
1 43683U 18085A   22265.54542462 -.00000282  00000+0  00000+0 0  9996
2 43683   0.9987 151.2454 0004323  46.7094 139.8826  1.00272024 14373
COSMOS 2529 (757)       
1 43687U 18086A   22264.34563028  .00000041  00000+0  00000+0 0  9991
2 43687  64.3534 238.8801 0011811 264.2465 278.9410  2.13102106 30208
BEIDOU-3 M17 (C36)      
1 43706U 18093A   22265.44764151  .00000005  00000+0  00000+0 0  9993
2 43706  54.3355 228.6569 0010698 277.9661  81.8824  1.86232049 26124
BEIDOU-3 M18 (C37)      
1 43707U 18093B   22264.52322856  .00000009  00000+0  00000+0 0  9998
2 43707  54.3362 228.6787 0009369 298.4128 252.9605  1.86232223 26115
GPS BIII-1  (PRN 04)    
1 43873U 18109A   22265.07429154  .00000008  00000+0  00000+0 0  9999
2 43873  55.1041 146.0815 0020393 188.9960 299.1402  2.00554538 27666
BEIDOU-3 IGSO-1 (C38)   
1 44204U 19023A   22264.81565102 -.00000183  00000+0  00000+0 0  9994
2 44204  56.7038  51.9383 0023545 188.5712 173.4349  1.00280651 12686
BEIDOU-2 G8             
1 44231U 19027A   22264.89256175 -.00000251  00000+0  00000+0 0  9999
2 44231   1.0892  79.0822 0006155 117.7681 269.7411  1.00274899 12397
COSMOS 2534 (758)       
1 44299U 19030A   22264.48159684  .00000041  00000+0  00000+0 0  9995
2 44299  64.4256 238.7698 0014142 282.5023 139.4894  2.13101845 25857
BEIDOU-3 IGSO-2 (C39)   
1 44337U 19035A   22265.60339005 -.00000163  00000+0  00000+0 0  9991
2 44337  55.1282 170.8603 0025731 192.3942 335.2056  1.00274794 12022
GPS BIII-2  (PRN 18)    
1 44506U 19056A   22264.60940025 -.00000085  00000+0  00000+0 0  9994
2 44506  55.7214  25.2297 0028368 180.8504 231.6453  2.00558561 22702
BEIDOU-3 M23 (C45)      
1 44542U 19061A   22264.84694894  .00000008  00000+0  00000+0 0  9990
2 44542  54.5619 228.8384 0008866 331.8327  28.0915  1.86231564 20385
BEIDOU-3 M24 (C46)      
1 44543U 19061B   22265.10433156  .00000007  00000+0  00000+0 0  9992
2 44543  54.5600 228.7991 0006474 312.7989 131.1217  1.86231828 20388
BEIDOU-3 IGSO-3         
1 44709U 19073A   22265.46852506 -.00000130  00000+0  10000-3 0  9995
2 44709  57.1068 295.3765 0027579 182.2846 172.3752  1.00279458 10768
BEIDOU-3 M21            
1 44793U 19078A   22264.76793455 -.00000096  00000+0  10000-3 0  9993
2 44793  54.9354 347.3021 0005086  15.6461  35.7284  1.86232284 19242
BEIDOU-3 M22            
1 44794U 19078B   22264.78058468 -.00000096  00000+0  00000+0 0  9999
2 44794  54.9097 347.2921 0002880   6.6882 324.9979  1.86232768 19231
COSMOS 2544 (759)       
1 44850U 19088A   22265.12953046  .00000059  00000+0  16595+1 0  9993
2 44850  64.9723 119.4477 0011017 255.1324 289.3706  2.13102262 21635
BEIDOU-3 M19            
1 44864U 19090A   22265.40299844  .00000045  00000+0  00000+0 0  9999
2 44864  55.4695 108.3031 0015120 270.7676 312.6133  1.86231944 18839
BEIDOU-3 M20            
1 44865U 19090B   22265.08851837  .00000042  00000+0  00000+0 0  9997
2 44865  55.4716 108.3458 0013304 286.6406 175.7463  1.86231889 18805
BEIDOU-3 G2             
1 45344U 20017A   22265.52544736 -.00000145  00000+0  00000+0 0  9992
2 45344   2.0176 356.9514 0003949 157.7190 115.9239  1.00272198  9599
COSMOS 2545 (760)       
1 45358U 20018A   22264.57711513 -.00000084  00000+0  00000+0 0  9993
2 45358  64.9117 359.9748 0009327 236.0014  94.0668  2.13102670 19574
BEIDOU-3 G3             
1 45807U 20040A   22265.02923650 -.00000359  00000+0  00000+0 0  9990
2 45807   1.2314 306.4016 0008008 331.8932 203.5896  1.00267025  8400
GPS BIII-3  (PRN 23)    
1 45854U 20041A   22264.65762409  .00000020  00000+0  00000+0 0  9998
2 45854  55.5970  82.4940 0026473 177.5079 206.9534  2.00569918 16673
GALAXY 30 (WAAS/PRN 135)
1 46114U 20056C   22265.17547804  .00000032  00000+0  00000+0 0  9995
2 46114   0.0108 231.8275 0002420 318.7018 108.6705  1.00272552  7728
GPS BIII-4  (PRN 14)    
1 46826U 20078A   22265.40171932  .00000029  00000+0  00000+0 0  9996
2 46826  54.5084 266.1591 0023437 191.6795 347.1682  2.00565348 14145
GPS BIII-5  (PRN 11)    
1 48859U 21054A   22264.90397255 -.00000082  00000+0  00000+0 0  9991
2 48859  55.2297  27.1704 0007709 198.3085 166.1593  2.00568121  9391
